CZ-2D R/B               
1 28738U 05024B   25326.48279640  .00023771  00000+0  39795-3 0  9992
2 28738  97.3645 333.4195 0007982  65.0861 295.1221 15.51838554123119
ALOS (DAICHI)           
1 28931U 06002A   25326.88007975  .00001620  00000+0  28219-3 0  9996
2 28931  98.1063 278.5120 0000779  68.3264 291.8024 14.69395908 57797
H-2A R/B                
1 28932U 06002B   25326.63091273  .00009325  00000+0  49924-3 0  9990
2 28932  98.2316  99.7487 0054294 244.9194 114.6395 15.13999511 78228
RESURS-DK 1             
1 29228U 06021A   25326.78594301  .00002701  00000+0  16311-3 0  9991
2 29228  69.9303 153.3974 0007327 274.5531  85.4797 15.11991739 71366
CZ-4B R/B               
1 29507U 06046C   25326.63385469  .00004737  00000+0  24994-3 0  9992
2 29507  97.5756   6.8279 0032590 278.7904  80.9638 15.15583895 43823
CZ-2C R/B               
1 31114U 07010B   25326.78054262  .00000197  00000+0  10967-3 0  9992
2 31114  98.3971  80.4368 0058031 244.5587 114.9578 14.20197705964549
COSMO-SKYMED 1          
1 31598U 07023A   25326.85146639  .00003668  00000+0  33608-3 0  9993
2 31598  97.8836 152.1228 0001138  91.1002 269.0349 14.95550268998921
COSMOS 2428             
1 31792U 07029A   25326.63174499 -.00000149  00000+0 -54399-4 0  9990
2 31792  70.9370  68.0955 0002592  56.7858 303.3511 14.12886956948973
SL-16 R/B               
1 31793U 07029B   25326.67350880  .00000116  00000+0  84783-4 0  9997
2 31793  70.9779  37.3373 0002287 264.2303 207.7755 14.14816351950235
KORONAS-FOTON           
1 33504U 09003A   25326.62273674  .00010837  00000+0  26519-3 0  9996
2 33504  82.4327  26.9387 0011809 175.4210 184.7146 15.40557808929247
CZ-2C R/B               
1 37731U 11030B   25326.79534376  .00001822  00000+0  23773-3 0  9995
2 37731  97.8385 281.3480 0052542 339.9777  79.2864 14.80799546774278
H-2A R/B                
1 38341U 12025E   25326.75271985  .00004228  00000+0  39302-3 0  9996
2 38341  98.4569 280.4476 0043961 303.8561  55.8477 14.94249391732242
