CCSDS_OMM_VERS = 2.0
CREATION_DATE  = 
ORIGINATOR     = 

OBJECT_NAME    = CZ-2D R/B
OBJECT_ID      = 2005-024B
CENTER_NAME    = EARTH
REF_FRAME      = TEME
TIME_SYSTEM    = UTC
MEAN_ELEMENT_THEORY = SGP/SGP4

EPOCH          = 2025-11-22T11:35:13.608960
MEAN_MOTION    = 15.51838554
ECCENTRICITY   = .0007982
INCLINATION    = 97.3645
RA_OF_ASC_NODE = 333.4195
ARG_OF_PERICENTER = 65.0861
MEAN_ANOMALY   = 295.1221

EPHEMERIS_TYPE = 0
CLASSIFICATION_TYPE = U
NORAD_CAT_ID   = 28738
ELEMENT_SET_NO = 999
REV_AT_EPOCH   = 12311
BSTAR          = .39795E-3
MEAN_MOTION_DOT = .23771E-3
MEAN_MOTION_DDOT = 0

CCSDS_OMM_VERS = 2.0
CREATION_DATE  = 
ORIGINATOR     = 

OBJECT_NAME    = ALOS (DAICHI)
OBJECT_ID      = 2006-002A
CENTER_NAME    = EARTH
REF_FRAME      = TEME
TIME_SYSTEM    = UTC
MEAN_ELEMENT_THEORY = SGP/SGP4

EPOCH          = 2025-11-22T21:07:18.890400
MEAN_MOTION    = 14.69395908
ECCENTRICITY   = .0000779
INCLINATION    = 98.1063
RA_OF_ASC_NODE = 278.5120
ARG_OF_PERICENTER = 68.3264
MEAN_ANOMALY   = 291.8024

EPHEMERIS_TYPE = 0
CLASSIFICATION_TYPE = U
NORAD_CAT_ID   = 28931
ELEMENT_SET_NO = 999
REV_AT_EPOCH   = 5779
BSTAR          = .28219E-3
MEAN_MOTION_DOT = .162E-4
MEAN_MOTION_DDOT = 0

CCSDS_OMM_VERS = 2.0
CREATION_DATE  = 
ORIGINATOR     = 

OBJECT_NAME    = H-2A R/B
OBJECT_ID      = 2006-002B
CENTER_NAME    = EARTH
REF_FRAME      = TEME
TIME_SYSTEM    = UTC
MEAN_ELEMENT_THEORY = SGP/SGP4

EPOCH          = 2025-11-22T15:08:30.859872
MEAN_MOTION    = 15.13999511
ECCENTRICITY   = .0054294
INCLINATION    = 98.2316
RA_OF_ASC_NODE = 99.7487
ARG_OF_PERICENTER = 244.9194
MEAN_ANOMALY   = 114.6395

EPHEMERIS_TYPE = 0
CLASSIFICATION_TYPE = U
NORAD_CAT_ID   = 28932
ELEMENT_SET_NO = 999
REV_AT_EPOCH   = 7822
BSTAR          = .49924E-3
MEAN_MOTION_DOT = .9325E-4
MEAN_MOTION_DDOT = 0

CCSDS_OMM_VERS = 2.0
CREATION_DATE  = 
ORIGINATOR     = 

OBJECT_NAME    = RESURS-DK 1
OBJECT_ID      = 2006-021A
CENTER_NAME    = EARTH
REF_FRAME      = TEME
TIME_SYSTEM    = UTC
MEAN_ELEMENT_THEORY = SGP/SGP4

EPOCH          = 2025-11-22T18:51:45.476064
MEAN_MOTION    = 15.11991739
ECCENTRICITY   = .0007327
INCLINATION    = 69.9303
RA_OF_ASC_NODE = 153.3974
ARG_OF_PERICENTER = 274.5531
MEAN_ANOMALY   = 85.4797

EPHEMERIS_TYPE = 0
CLASSIFICATION_TYPE = U
NORAD_CAT_ID   = 29228
ELEMENT_SET_NO = 999
REV_AT_EPOCH   = 7136
BSTAR          = .16311E-3
MEAN_MOTION_DOT = .2701E-4
MEAN_MOTION_DDOT = 0

CCSDS_OMM_VERS = 2.0
CREATION_DATE  = 
ORIGINATOR     = 

OBJECT_NAME    = CZ-4B R/B
OBJECT_ID      = 2006-046C
CENTER_NAME    = EARTH
REF_FRAME      = TEME
TIME_SYSTEM    = UTC
MEAN_ELEMENT_THEORY = SGP/SGP4

EPOCH          = 2025-11-22T15:12:45.045216
MEAN_MOTION    = 15.15583895
ECCENTRICITY   = .003259
INCLINATION    = 97.5756
RA_OF_ASC_NODE = 6.8279
ARG_OF_PERICENTER = 278.7904
MEAN_ANOMALY   = 80.9638

EPHEMERIS_TYPE = 0
CLASSIFICATION_TYPE = U
NORAD_CAT_ID   = 29507
ELEMENT_SET_NO = 999
REV_AT_EPOCH   = 4382
BSTAR          = .24994E-3
MEAN_MOTION_DOT = .4737E-4
MEAN_MOTION_DDOT = 0

CCSDS_OMM_VERS = 2.0
CREATION_DATE  = 
ORIGINATOR     = 

OBJECT_NAME    = CZ-2C R/B
OBJECT_ID      = 2007-010B
CENTER_NAME    = EARTH
REF_FRAME      = TEME
TIME_SYSTEM    = UTC
MEAN_ELEMENT_THEORY = SGP/SGP4

EPOCH          = 2025-11-22T18:43:58.882368
MEAN_MOTION    = 14.20197705
ECCENTRICITY   = .0058031
INCLINATION    = 98.3971
RA_OF_ASC_NODE = 80.4368
ARG_OF_PERICENTER = 244.5587
MEAN_ANOMALY   = 114.9578

EPHEMERIS_TYPE = 0
CLASSIFICATION_TYPE = U
NORAD_CAT_ID   = 31114
ELEMENT_SET_NO = 999
REV_AT_EPOCH   = 96454
BSTAR          = .10967E-3
MEAN_MOTION_DOT = .197E-5
MEAN_MOTION_DDOT = 0

CCSDS_OMM_VERS = 2.0
CREATION_DATE  = 
ORIGINATOR     = 

OBJECT_NAME    = COSMO-SKYMED 1
OBJECT_ID      = 2007-023A
CENTER_NAME    = EARTH
REF_FRAME      = TEME
TIME_SYSTEM    = UTC
MEAN_ELEMENT_THEORY = SGP/SGP4

EPOCH          = 2025-11-22T20:26:06.696096
MEAN_MOTION    = 14.95550268
ECCENTRICITY   = .0001138
INCLINATION    = 97.8836
RA_OF_ASC_NODE = 152.1228
ARG_OF_PERICENTER = 91.1002
MEAN_ANOMALY   = 269.0349

EPHEMERIS_TYPE = 0
CLASSIFICATION_TYPE = U
NORAD_CAT_ID   = 31598
ELEMENT_SET_NO = 999
REV_AT_EPOCH   = 99892
BSTAR          = .33608E-3
MEAN_MOTION_DOT = .3668E-4
MEAN_MOTION_DDOT = 0

CCSDS_OMM_VERS = 2.0
CREATION_DATE  = 
ORIGINATOR     = 

OBJECT_NAME    = COSMOS 2428
OBJECT_ID      = 2007-029A
CENTER_NAME    = EARTH
REF_FRAME      = TEME
TIME_SYSTEM    = UTC
MEAN_ELEMENT_THEORY = SGP/SGP4

EPOCH          = 2025-11-22T15:09:42.767136
MEAN_MOTION    = 14.12886956
ECCENTRICITY   = .0002592
INCLINATION    = 70.9370
RA_OF_ASC_NODE = 68.0955
ARG_OF_PERICENTER = 56.7858
MEAN_ANOMALY   = 303.3511

EPHEMERIS_TYPE = 0
CLASSIFICATION_TYPE = U
NORAD_CAT_ID   = 31792
ELEMENT_SET_NO = 999
REV_AT_EPOCH   = 94897
BSTAR          = -.54399E-4
MEAN_MOTION_DOT = -.149E-5
MEAN_MOTION_DDOT = 0

CCSDS_OMM_VERS = 2.0
CREATION_DATE  = 
ORIGINATOR     = 

OBJECT_NAME    = SL-16 R/B
OBJECT_ID      = 2007-029B
CENTER_NAME    = EARTH
REF_FRAME      = TEME
TIME_SYSTEM    = UTC
MEAN_ELEMENT_THEORY = SGP/SGP4

EPOCH          = 2025-11-22T16:09:51.160320
MEAN_MOTION    = 14.14816351
ECCENTRICITY   = .0002287
INCLINATION    = 70.9779
RA_OF_ASC_NODE = 37.3373
ARG_OF_PERICENTER = 264.2303
MEAN_ANOMALY   = 207.7755

EPHEMERIS_TYPE = 0
CLASSIFICATION_TYPE = U
NORAD_CAT_ID   = 31793
ELEMENT_SET_NO = 999
REV_AT_EPOCH   = 95023
BSTAR          = .84783E-4
MEAN_MOTION_DOT = .116E-5
MEAN_MOTION_DDOT = 0

CCSDS_OMM_VERS = 2.0
CREATION_DATE  = 
ORIGINATOR     = 

OBJECT_NAME    = KORONAS-FOTON
OBJECT_ID      = 2009-003A
CENTER_NAME    = EARTH
REF_FRAME      = TEME
TIME_SYSTEM    = UTC
MEAN_ELEMENT_THEORY = SGP/SGP4

EPOCH          = 2025-11-22T14:56:44.454336
MEAN_MOTION    = 15.40557808
ECCENTRICITY   = .0011809
INCLINATION    = 82.4327
RA_OF_ASC_NODE = 26.9387
ARG_OF_PERICENTER = 175.4210
MEAN_ANOMALY   = 184.7146

EPHEMERIS_TYPE = 0
CLASSIFICATION_TYPE = U
NORAD_CAT_ID   = 33504
ELEMENT_SET_NO = 999
REV_AT_EPOCH   = 92924
BSTAR          = .26519E-3
MEAN_MOTION_DOT = .10837E-3
MEAN_MOTION_DDOT = 0

CCSDS_OMM_VERS = 2.0
CREATION_DATE  = 
ORIGINATOR     = 

OBJECT_NAME    = CZ-2C R/B
OBJECT_ID      = 2011-030B
CENTER_NAME    = EARTH
REF_FRAME      = TEME
TIME_SYSTEM    = UTC
MEAN_ELEMENT_THEORY = SGP/SGP4

EPOCH          = 2025-11-22T19:05:17.700864
MEAN_MOTION    = 14.80799546
ECCENTRICITY   = .0052542
INCLINATION    = 97.8385
RA_OF_ASC_NODE = 281.3480
ARG_OF_PERICENTER = 339.9777
MEAN_ANOMALY   = 79.2864

EPHEMERIS_TYPE = 0
CLASSIFICATION_TYPE = U
NORAD_CAT_ID   = 37731
ELEMENT_SET_NO = 999
REV_AT_EPOCH   = 77427
BSTAR          = .23773E-3
MEAN_MOTION_DOT = .1822E-4
MEAN_MOTION_DDOT = 0

CCSDS_OMM_VERS = 2.0
CREATION_DATE  = 
ORIGINATOR     = 

OBJECT_NAME    = H-2A R/B
OBJECT_ID      = 2012-025E
CENTER_NAME    = EARTH
REF_FRAME      = TEME
TIME_SYSTEM    = UTC
MEAN_ELEMENT_THEORY = SGP/SGP4

EPOCH          = 2025-11-22T18:03:54.995040
MEAN_MOTION    = 14.94249391
ECCENTRICITY   = .0043961
INCLINATION    = 98.4569
RA_OF_ASC_NODE = 280.4476
ARG_OF_PERICENTER = 303.8561
MEAN_ANOMALY   = 55.8477

EPHEMERIS_TYPE = 0
CLASSIFICATION_TYPE = U
NORAD_CAT_ID   = 38341
ELEMENT_SET_NO = 999
REV_AT_EPOCH   = 73224
BSTAR          = .39302E-3
MEAN_MOTION_DOT = .4228E-4
MEAN_MOTION_DDOT = 0

